ORBCOMM FM24            
1 25478U 98053D   25047.48216035  .00002491  00000+0  87012-3 0  9994
2 25478  45.0071 121.2115 0002974 286.3279  73.7242 14.37554111380353
ORBCOMM FM25            
1 25479U 98053E   25046.68703896  .00002275  00000+0  79905-3 0  9994
2 25479  45.0062 123.2350 0004145 320.3626  39.6918 14.37530687380256
ORBCOMM FM26            
1 25480U 98053F   25047.45625415  .00002003  00000+0  72135-3 0  9999
2 25480  45.0058 115.2114 0004900 356.0353   4.0455 14.36674850380380
ORBCOMM FM27            
1 25481U 98053G   25047.51038583  .00002380  00000+0  83362-3 0  9993
2 25481  45.0044 119.5734 0002420 256.7493 103.3085 14.37542132380343
ORBCOMM FM28            
1 25482U 98053H   25047.14944854  .00002385  00000+0  83110-3 0  9996
2 25482  45.0053  58.9844 0003484  13.9876 346.1068 14.37792550381105
ORBCOMM FM30            
1 25980U 99065A   25047.11200156  .00001932  00000+0  69549-3 0  9997
2 25980  45.0324 302.6335 0006065 113.1898 246.9590 14.36832787317560
ORBCOMM FM31            
1 25981U 99065B   25047.35928537  .00001789  00000+0  64809-3 0  9998
2 25981  45.0235 294.9942 0003299 137.0025 223.1081 14.36798447317591
ORBCOMM FM32            
1 25982U 99065C   25047.11630302  .00001880  00000+0  69145-3 0  9993
2 25982  45.0167 311.9029 0004984 136.6153 223.5087 14.35837748317329
