<?xml version="1.0" encoding="UTF-8"?>
<ndm xmlns:xsi="http://www.w3.org/2001/XMLSchema-instance" xsi:noNamespaceSchemaLocation="https://sanaregistry.org/r/ndmxml_unqualified/ndmxml-2.0.0-master-2.0.xsd">
<omm id="CCSDS_OMM_VERS" version="2.0">
<header><CREATION_DATE/><ORIGINATOR/></header><body><segment><metadata><OBJECT_NAME>ORBCOMM FM24</OBJECT_NAME><OBJECT_ID>1998-053D</OBJECT_ID><CENTER_NAME>EARTH</CENTER_NAME><REF_FRAME>TEME</REF_FRAME><TIME_SYSTEM>UTC</TIME_SYSTEM><MEAN_ELEMENT_THEORY>SGP4</MEAN_ELEMENT_THEORY></metadata><data><meanElements><EPOCH>2025-02-16T11:34:18.654240</EPOCH><MEAN_MOTION>14.37554111</MEAN_MOTION><ECCENTRICITY>.0002974</ECCENTRICITY><INCLINATION>45.0071</INCLINATION><RA_OF_ASC_NODE>121.2115</RA_OF_ASC_NODE><ARG_OF_PERICENTER>286.3279</ARG_OF_PERICENTER><MEAN_ANOMALY>73.7242</MEAN_ANOMALY></meanElements><tleParameters><EPHEMERIS_TYPE>0</EPHEMERIS_TYPE><CLASSIFICATION_TYPE>U</CLASSIFICATION_TYPE><NORAD_CAT_ID>25478</NORAD_CAT_ID><ELEMENT_SET_NO>999</ELEMENT_SET_NO><REV_AT_EPOCH>38035</REV_AT_EPOCH><BSTAR>.87012E-3</BSTAR><MEAN_MOTION_DOT>.2491E-4</MEAN_MOTION_DOT><MEAN_MOTION_DDOT>0</MEAN_MOTION_DDOT></tleParameters></data></segment></body></omm>
<omm id="CCSDS_OMM_VERS" version="2.0">
<header><CREATION_DATE/><ORIGINATOR/></header><body><segment><metadata><OBJECT_NAME>ORBCOMM FM25</OBJECT_NAME><OBJECT_ID>1998-053E</OBJECT_ID><CENTER_NAME>EARTH</CENTER_NAME><REF_FRAME>TEME</REF_FRAME><TIME_SYSTEM>UTC</TIME_SYSTEM><MEAN_ELEMENT_THEORY>SGP4</MEAN_ELEMENT_THEORY></metadata><data><meanElements><EPOCH>2025-02-15T16:29:20.166144</EPOCH><MEAN_MOTION>14.37530687</MEAN_MOTION><ECCENTRICITY>.0004145</ECCENTRICITY><INCLINATION>45.0062</INCLINATION><RA_OF_ASC_NODE>123.2350</RA_OF_ASC_NODE><ARG_OF_PERICENTER>320.3626</ARG_OF_PERICENTER><MEAN_ANOMALY>39.6918</MEAN_ANOMALY></meanElements><tleParameters><EPHEMERIS_TYPE>0</EPHEMERIS_TYPE><CLASSIFICATION_TYPE>U</CLASSIFICATION_TYPE><NORAD_CAT_ID>25479</NORAD_CAT_ID><ELEMENT_SET_NO>999</ELEMENT_SET_NO><REV_AT_EPOCH>38025</REV_AT_EPOCH><BSTAR>.79905E-3</BSTAR><MEAN_MOTION_DOT>.2275E-4</MEAN_MOTION_DOT><MEAN_MOTION_DDOT>0</MEAN_MOTION_DDOT></tleParameters></data></segment></body></omm>
<omm id="CCSDS_OMM_VERS" version="2.0">
<header><CREATION_DATE/><ORIGINATOR/></header><body><segment><metadata><OBJECT_NAME>ORBCOMM FM26</OBJECT_NAME><OBJECT_ID>1998-053F</OBJECT_ID><CENTER_NAME>EARTH</CENTER_NAME><REF_FRAME>TEME</REF_FRAME><TIME_SYSTEM>UTC</TIME_SYSTEM><MEAN_ELEMENT_THEORY>SGP4</MEAN_ELEMENT_THEORY></metadata><data><meanElements><EPOCH>2025-02-16T10:57:00.358560</EPOCH><MEAN_MOTION>14.36674850</MEAN_MOTION><ECCENTRICITY>.00049</ECCENTRICITY><INCLINATION>45.0058</INCLINATION><RA_OF_ASC_NODE>115.2114</RA_OF_ASC_NODE><ARG_OF_PERICENTER>356.0353</ARG_OF_PERICENTER><MEAN_ANOMALY>4.0455</MEAN_ANOMALY></meanElements><tleParameters><EPHEMERIS_TYPE>0</EPHEMERIS_TYPE><CLASSIFICATION_TYPE>U</CLASSIFICATION_TYPE><NORAD_CAT_ID>25480</NORAD_CAT_ID><ELEMENT_SET_NO>999</ELEMENT_SET_NO><REV_AT_EPOCH>38038</REV_AT_EPOCH><BSTAR>.72135E-3</BSTAR><MEAN_MOTION_DOT>.2003E-4</MEAN_MOTION_DOT><MEAN_MOTION_DDOT>0</MEAN_MOTION_DDOT></tleParameters></data></segment></body></omm>
<omm id="CCSDS_OMM_VERS" version="2.0">
<header><CREATION_DATE/><ORIGINATOR/></header><body><segment><metadata><OBJECT_NAME>ORBCOMM FM27</OBJECT_NAME><OBJECT_ID>1998-053G</OBJECT_ID><CENTER_NAME>EARTH</CENTER_NAME><REF_FRAME>TEME</REF_FRAME><TIME_SYSTEM>UTC</TIME_SYSTEM><MEAN_ELEMENT_THEORY>SGP4</MEAN_ELEMENT_THEORY></metadata><data><meanElements><EPOCH>2025-02-16T12:14:57.335712</EPOCH><MEAN_MOTION>14.37542132</MEAN_MOTION><ECCENTRICITY>.000242</ECCENTRICITY><INCLINATION>45.0044</INCLINATION><RA_OF_ASC_NODE>119.5734</RA_OF_ASC_NODE><ARG_OF_PERICENTER>256.7493</ARG_OF_PERICENTER><MEAN_ANOMALY>103.3085</MEAN_ANOMALY></meanElements><tleParameters><EPHEMERIS_TYPE>0</EPHEMERIS_TYPE><CLASSIFICATION_TYPE>U</CLASSIFICATION_TYPE><NORAD_CAT_ID>25481</NORAD_CAT_ID><ELEMENT_SET_NO>999</ELEMENT_SET_NO><REV_AT_EPOCH>38034</REV_AT_EPOCH><BSTAR>.83362E-3</BSTAR><MEAN_MOTION_DOT>.238E-4</MEAN_MOTION_DOT><MEAN_MOTION_DDOT>0</MEAN_MOTION_DDOT></tleParameters></data></segment></body></omm>
<omm id="CCSDS_OMM_VERS" version="2.0">
<header><CREATION_DATE/><ORIGINATOR/></header><body><segment><metadata><OBJECT_NAME>ORBCOMM FM28</OBJECT_NAME><OBJECT_ID>1998-053H</OBJECT_ID><CENTER_NAME>EARTH</CENTER_NAME><REF_FRAME>TEME</REF_FRAME><TIME_SYSTEM>UTC</TIME_SYSTEM><MEAN_ELEMENT_THEORY>SGP4</MEAN_ELEMENT_THEORY></metadata><data><meanElements><EPOCH>2025-02-16T03:35:12.353856</EPOCH><MEAN_MOTION>14.37792550</MEAN_MOTION><ECCENTRICITY>.0003484</ECCENTRICITY><INCLINATION>45.0053</INCLINATION><RA_OF_ASC_NODE>58.9844</RA_OF_ASC_NODE><ARG_OF_PERICENTER>13.9876</ARG_OF_PERICENTER><MEAN_ANOMALY>346.1068</MEAN_ANOMALY></meanElements><tleParameters><EPHEMERIS_TYPE>0</EPHEMERIS_TYPE><CLASSIFICATION_TYPE>U</CLASSIFICATION_TYPE><NORAD_CAT_ID>25482</NORAD_CAT_ID><ELEMENT_SET_NO>999</ELEMENT_SET_NO><REV_AT_EPOCH>38110</REV_AT_EPOCH><BSTAR>.8311E-3</BSTAR><MEAN_MOTION_DOT>.2385E-4</MEAN_MOTION_DOT><MEAN_MOTION_DDOT>0</MEAN_MOTION_DDOT></tleParameters></data></segment></body></omm>
<omm id="CCSDS_OMM_VERS" version="2.0">
<header><CREATION_DATE/><ORIGINATOR/></header><body><segment><metadata><OBJECT_NAME>ORBCOMM FM30</OBJECT_NAME><OBJECT_ID>1999-065A</OBJECT_ID><CENTER_NAME>EARTH</CENTER_NAME><REF_FRAME>TEME</REF_FRAME><TIME_SYSTEM>UTC</TIME_SYSTEM><MEAN_ELEMENT_THEORY>SGP4</MEAN_ELEMENT_THEORY></metadata><data><meanElements><EPOCH>2025-02-16T02:41:16.934784</EPOCH><MEAN_MOTION>14.36832787</MEAN_MOTION><ECCENTRICITY>.0006065</ECCENTRICITY><INCLINATION>45.0324</INCLINATION><RA_OF_ASC_NODE>302.6335</RA_OF_ASC_NODE><ARG_OF_PERICENTER>113.1898</ARG_OF_PERICENTER><MEAN_ANOMALY>246.9590</MEAN_ANOMALY></meanElements><tleParameters><EPHEMERIS_TYPE>0</EPHEMERIS_TYPE><CLASSIFICATION_TYPE>U</CLASSIFICATION_TYPE><NORAD_CAT_ID>25980</NORAD_CAT_ID><ELEMENT_SET_NO>999</ELEMENT_SET_NO><REV_AT_EPOCH>31756</REV_AT_EPOCH><BSTAR>.69549E-3</BSTAR><MEAN_MOTION_DOT>.1932E-4</MEAN_MOTION_DOT><MEAN_MOTION_DDOT>0</MEAN_MOTION_DDOT></tleParameters></data></segment></body></omm>
<omm id="CCSDS_OMM_VERS" version="2.0">
<header><CREATION_DATE/><ORIGINATOR/></header><body><segment><metadata><OBJECT_NAME>ORBCOMM FM31</OBJECT_NAME><OBJECT_ID>1999-065B</OBJECT_ID><CENTER_NAME>EARTH</CENTER_NAME><REF_FRAME>TEME</REF_FRAME><TIME_SYSTEM>UTC</TIME_SYSTEM><MEAN_ELEMENT_THEORY>SGP4</MEAN_ELEMENT_THEORY></metadata><data><meanElements><EPOCH>2025-02-16T08:37:22.255968</EPOCH><MEAN_MOTION>14.36798447</MEAN_MOTION><ECCENTRICITY>.0003299</ECCENTRICITY><INCLINATION>45.0235</INCLINATION><RA_OF_ASC_NODE>294.9942</RA_OF_ASC_NODE><ARG_OF_PERICENTER>137.0025</ARG_OF_PERICENTER><MEAN_ANOMALY>223.1081</MEAN_ANOMALY></meanElements><tleParameters><EPHEMERIS_TYPE>0</EPHEMERIS_TYPE><CLASSIFICATION_TYPE>U</CLASSIFICATION_TYPE><NORAD_CAT_ID>25981</NORAD_CAT_ID><ELEMENT_SET_NO>999</ELEMENT_SET_NO><REV_AT_EPOCH>31759</REV_AT_EPOCH><BSTAR>.64809E-3</BSTAR><MEAN_MOTION_DOT>.1789E-4</MEAN_MOTION_DOT><MEAN_MOTION_DDOT>0</MEAN_MOTION_DDOT></tleParameters></data></segment></body></omm>
<omm id="CCSDS_OMM_VERS" version="2.0">
<header><CREATION_DATE/><ORIGINATOR/></header><body><segment><metadata><OBJECT_NAME>ORBCOMM FM32</OBJECT_NAME><OBJECT_ID>1999-065C</OBJECT_ID><CENTER_NAME>EARTH</CENTER_NAME><REF_FRAME>TEME</REF_FRAME><TIME_SYSTEM>UTC</TIME_SYSTEM><MEAN_ELEMENT_THEORY>SGP4</MEAN_ELEMENT_THEORY></metadata><data><meanElements><EPOCH>2025-02-16T02:47:28.580928</EPOCH><MEAN_MOTION>14.35837748</MEAN_MOTION><ECCENTRICITY>.0004984</ECCENTRICITY><INCLINATION>45.0167</INCLINATION><RA_OF_ASC_NODE>311.9029</RA_OF_ASC_NODE><ARG_OF_PERICENTER>136.6153</ARG_OF_PERICENTER><MEAN_ANOMALY>223.5087</MEAN_ANOMALY></meanElements><tleParameters><EPHEMERIS_TYPE>0</EPHEMERIS_TYPE><CLASSIFICATION_TYPE>U</CLASSIFICATION_TYPE><NORAD_CAT_ID>25982</NORAD_CAT_ID><ELEMENT_SET_NO>999</ELEMENT_SET_NO><REV_AT_EPOCH>31732</REV_AT_EPOCH><BSTAR>.69145E-3</BSTAR><MEAN_MOTION_DOT>.188E-4</MEAN_MOTION_DOT><MEAN_MOTION_DDOT>0</MEAN_MOTION_DDOT></tleParameters></data></segment></body></omm>

</ndm>
